NORAD_CAT_ID,OBJECT_NAME,OBJECT_TYPE,EPOCH,MEAN_MOTION,ECCENTRICITY,INCLINATION,RA_OF_ASC_NODE,ARG_OF_PERICENTER,MEAN_ANOMALY,BSTAR,MEAN_MOTION_DOT,MEAN_MOTION_DDOT,TLE_LINE0,TLE_LINE1,TLE_LINE2,SEMIMAJOR_AXIS,PERIOD,APOGEE,PERIGEE,DECAYED
52484.0,STARLINK-3887,PAYLOAD,2023-09-25 07:55:22,15.08847184,0.0001099,53.2161,123.0327,98.7249,261.3868,0.00027678,4.121e-05,0.0,0 STARLINK-3887,1 52484U 22049AK  23268.33011621  .00004121  00000-0  27678-3 0  9999,2 52484  53.2161 123.0327 0001099  98.7249 261.3868 15.08847184 76934,6917.858,95.437,540.484,538.963,0.0
52484.0,STARLINK-3887,PAYLOAD,2023-09-25 20:38:26,15.08852593,0.0001264,53.2158,120.6539,86.0041,274.1095,0.00031738,4.769e-05,0.0,0 STARLINK-3887,1 52484U 22049AK  23268.86003423  .00004769  00000-0  31738-3 0  9998,2 52484  53.2158 120.6539 0001264  86.0041 274.1095 15.08852593 77016,6917.842,95.437,540.581,538.832,0.0
52484.0,STARLINK-3887,PAYLOAD,2023-09-25 23:49:12,15.08857866,0.0001235,53.2163,120.0573,96.9812,263.1321,0.00043416,6.632e-05,0.0,0 STARLINK-3887,1 52484U 22049AK  23268.99251119  .00006632  00000-0  43416-3 0  9996,2 52484  53.2163 120.0573 0001235  96.9812 263.1321 15.08857866 77195,6917.826,95.436,540.545,538.836,0.0
52484.0,STARLINK-3887,PAYLOAD,2023-09-26 20:29:14,15.08836429,0.0001439,53.2149,116.1943,74.2336,285.8815,2.6049e-05,1.27e-06,0.0,0 STARLINK-3887,1 52484U 22049AK  23269.85364182  .00000127  00000-0  26049-4 0  9994,2 52484  53.2149 116.1943 0001439  74.2336 285.8815 15.08836429 77328,6917.891,95.438,540.752,538.761,0.0
52484.0,STARLINK-3887,PAYLOAD,2023-09-26 23:40:00,15.08839543,0.0001367,53.2153,115.5976,81.4502,278.6645,8.2919e-05,1.032e-05,0.0,0 STARLINK-3887,1 52484U 22049AK  23269.98612107  .00001032  00000-0  82919-4 0  9995,2 52484  53.2153 115.5976 0001367  81.4502 278.6645 15.08839543 77182,6917.882,95.438,540.692,538.801,0.0
52484.0,STARLINK-3887,PAYLOAD,2023-09-27 23:30:48,15.08835577,0.0001442,53.216,111.1344,107.7204,252.3945,0.00012645,1.725e-05,0.0,0 STARLINK-3887,1 52484U 22049AK  23270.97972663  .00001725  00000-0  12645-3 0  9999,2 52484  53.2160 111.1344 0001442 107.7204 252.3945 15.08835577 77495,6917.894,95.438,540.756,538.761,0.0
52484.0,STARLINK-3887,PAYLOAD,2023-09-28 20:10:48,15.08846868,0.0001396,53.2159,107.269,94.115,266.0002,0.00030609,4.588e-05,0.0,0 STARLINK-3887,1 52484U 22049AK  23271.84084373  .00004588  00000-0  30609-3 0  9998,2 52484  53.2159 107.2690 0001396  94.1150 266.0002 15.08846868 77468,6917.859,95.437,540.69,538.759,0.0
52484.0,STARLINK-3887,PAYLOAD,2023-09-29 00:56:58,15.08852592,0.0001384,53.2157,106.3772,95.4707,264.6443,0.00037402,5.672e-05,0.0,0 STARLINK-3887,1 52484U 22049AK  23272.03956076  .00005672  00000-0  37402-3 0  9991,2 52484  53.2157 106.3772 0001384  95.4707 264.6443 15.08852592 77651,6917.842,95.437,540.664,538.749,0.0
52484.0,STARLINK-3887,PAYLOAD,2023-09-29 18:26:12,15.0884271,0.0001498,53.216,103.1097,70.7827,289.3327,9.2294e-05,1.181e-05,0.0,0 STARLINK-3887,1 52484U 22049AK  23272.76820349  .00001181  00000-0  92294-4 0  9996,2 52484  53.2160 103.1097 0001498  70.7827 289.3327 15.08842710 77763,6917.872,95.437,540.773,538.701,0.0
52484.0,STARLINK-3887,PAYLOAD,2023-09-30 19:52:22,15.08843161,0.0001445,53.2162,98.3512,73.7144,286.4007,1.3639e-05,-7.1e-07,0.0,0 STARLINK-3887,1 52484U 22049AK  23273.82804351 -.00000071  00000-0  13639-4 0  9993,2 52484  53.2162  98.3512 0001445  73.7144 286.4007 15.08843161 77921,6917.871,95.437,540.735,538.736,0.0
52484.0,STARLINK-3887,PAYLOAD,2023-10-01 19:43:09,15.088481,0.0001385,53.2156,93.8896,74.6629,285.4516,0.00019942,2.888e-05,0.0,0 STARLINK-3887,1 52484U 22049AK  23274.82164084  .00002888  00000-0  19942-3 0  9995,2 52484  53.2156  93.8896 0001385  74.6629 285.4516 15.08848100 77911,6917.856,95.437,540.679,538.763,0.0
52484.0,STARLINK-3887,PAYLOAD,2023-10-02 11:37:01,15.08840196,0.0001329,53.2157,90.9159,85.729,274.3853,6.8184e-05,7.97e-06,0.0,0 STARLINK-3887,1 52484U 22049AK  23275.48404420  .00000797  00000-0  68184-4 0  9999,2 52484  53.2157  90.9159 0001329  85.7290 274.3853 15.08840196 78174,6917.88,95.438,540.664,538.825,0.0
52484.0,STARLINK-3887,PAYLOAD,2023-10-02 17:58:33,15.08853113,0.0001226,53.2151,89.7266,88.0093,272.104,-0.00037433,-6.243e-05,0.0,0 STARLINK-3887,1 52484U 22049AK  23275.74899633 -.00006243  00000-0 -37433-3 0  9998,2 52484  53.2151  89.7266 0001226  88.0093 272.1040 15.08853113 78218,6917.84,95.437,540.553,538.857,0.0
52484.0,STARLINK-3887,PAYLOAD,2023-10-03 05:06:16,15.08834745,0.0001628,53.2152,87.645,82.9,277.2177,-2.2012e-05,-6.38e-06,0.0,0 STARLINK-3887,1 52484U 22049AK  23276.21268799 -.00000638  00000-0 -22012-4 0  9994,2 52484  53.2152  87.6450 0001628  82.9000 277.2177 15.08834745 78282,6917.896,95.438,540.888,538.635,0.0
52484.0,STARLINK-3887,PAYLOAD,2023-10-03 17:49:21,15.08841649,0.000144,53.2162,85.2665,81.3329,278.7826,2.0239e-05,3.4e-07,0.0,0 STARLINK-3887,1 52484U 22049AK  23276.74260602  .00000034  00000-0  20239-4 0  9994,2 52484  53.2162  85.2665 0001440  81.3329 278.7826 15.08841649 78204,6917.875,95.437,540.737,538.744,0.0
52484.0,STARLINK-3887,PAYLOAD,2023-10-03 22:35:29,15.08849411,0.0001497,53.2178,84.3716,80.0303,280.0858,7.0958e-05,8.42e-06,0.0,0 STARLINK-3887,1 52484U 22049AK  23276.94131929  .00000842  00000-0  70958-4 0  9995,2 52484  53.2178  84.3716 0001497  80.0303 280.0858 15.08849411 78394,6917.852,95.437,540.752,538.681,0.0
52484.0,STARLINK-3887,PAYLOAD,2023-10-04 11:18:35,15.08837004,0.00014,53.2178,81.9928,90.0217,270.0936,0.00017617,2.517e-05,0.0,0 STARLINK-3887,1 52484U 22049AK  23277.47124482  .00002517  00000-0  17617-3 0  9993,2 52484  53.2178  81.9928 0001400  90.0217 270.0936 15.08837004 78471,6917.89,95.438,540.723,538.786,0.0
52484.0,STARLINK-3887,PAYLOAD,2023-10-04 14:29:21,15.08843772,0.0001495,53.2161,81.3998,93.935,266.1813,0.00013382,1.843e-05,0.0,0 STARLINK-3887,1 52484U 22049AK  23277.60372144  .00001843  00000-0  13382-3 0  9994,2 52484  53.2161  81.3998 0001495  93.9350 266.1813 15.08843772 78332,6917.869,95.437,540.768,538.7,0.0
52484.0,STARLINK-3887,PAYLOAD,2023-10-04 17:40:07,15.08846255,0.0001418,53.2169,80.805,91.426,268.6895,0.00017415,2.485e-05,0.0,0 STARLINK-3887,1 52484U 22049AK  23277.73619871  .00002485  00000-0  17415-3 0  9993,2 52484  53.2169  80.8050 0001418  91.4260 268.6895 15.08846255 78517,6917.861,95.437,540.707,538.745,0.0
52484.0,STARLINK-3887,PAYLOAD,2023-10-04 22:26:16,15.08858856,0.0001419,53.2175,79.9115,90.5615,269.554,0.00017721,2.535e-05,0.0,0 STARLINK-3887,1 52484U 22049AK  23277.93490861  .00002535  00000-0  17721-3 0  9997,2 52484  53.2175  79.9115 0001419  90.5615 269.5540 15.08858856 78540,6917.823,95.436,540.669,538.706,0.0
52484.0,STARLINK-3887,PAYLOAD,2023-10-05 17:30:55,15.08839999,0.0001498,53.2175,76.3441,84.6871,275.4292,-9.0369e-06,-4.32e-06,0.0,0 STARLINK-3887,1 52484U 22049AK  23278.72980522 -.00000432  00000-0 -90369-5 0  9990,2 52484  53.2175  76.3441 0001498  84.6871 275.4292 15.08839999 78668,6917.88,95.438,540.782,538.709,0.0
52484.0,STARLINK-3887,PAYLOAD,2023-10-06 14:10:56,15.08838213,0.0001554,53.2179,72.477,90.896,269.2211,-5.1479e-05,-1.107e-05,0.0,0 STARLINK-3887,1 52484U 22049AK  23279.59092706 -.00001107  00000-0 -51479-4 0  9992,2 52484  53.2179  72.4770 0001554  90.8960 269.2211 15.08838213 78632,6917.886,95.438,540.826,538.676,0.0
52484.0,STARLINK-3887,PAYLOAD,2023-10-06 17:21:42,15.08841031,0.0001424,53.2178,71.885,81.1722,278.9431,0.00010807,1.432e-05,0.0,0 STARLINK-3887,1 52484U 22049AK  23279.72340620  .00001432  00000-0  10807-3 0  9996,2 52484  53.2178  71.8850 0001424  81.1722 278.9431 15.08841031 78653,6917.877,95.437,540.727,538.757,0.0
52484.0,STARLINK-3887,PAYLOAD,2023-10-07 14:01:43,15.08844755,0.0001388,53.2174,68.0202,85.5646,274.5505,0.00029987,4.488e-05,0.0,0 STARLINK-3887,1 52484U 22049AK  23280.58452947  .00004488  00000-0  29987-3 0  9991,2 52484  53.2174  68.0202 0001388  85.5646 274.5505 15.08844755 78784,6917.866,95.437,540.691,538.771,0.0
52484.0,STARLINK-3887,PAYLOAD,2023-10-07 17:12:29,15.08850776,0.0001453,53.2185,67.4269,92.1765,267.9393,0.00041405,6.31e-05,0.0,0 STARLINK-3887,1 52484U 22049AK  23280.71700752  .00006310  00000-0  41405-3 0  9991,2 52484  53.2185  67.4269 0001453  92.1765 267.9393 15.08850776 78962,6917.847,95.437,540.718,538.707,0.0
52484.0,STARLINK-3887,PAYLOAD,2023-10-08 02:44:48,15.08843779,0.0001325,53.2174,65.6397,87.8339,272.2805,0.0002488,3.674e-05,0.0,0 STARLINK-3887,1 52484U 22049AK  23281.11444812  .00003674  00000-0  24880-3 0  9996,2 52484  53.2174  65.6397 0001325  87.8339 272.2805 15.08843779 79028,6917.869,95.437,540.65,538.817,0.0
52484.0,STARLINK-3887,PAYLOAD,2023-10-08 13:52:30,15.08835352,0.0001645,53.2186,63.5614,95.1562,264.9618,-4.4901e-05,-1.002e-05,0.0,0 STARLINK-3887,1 52484U 22049AK  23281.57813352 -.00001002  00000-0 -44901-4 0  9997,2 52484  53.2186  63.5614 0001645  95.1562 264.9618 15.08835352 78932,6917.895,95.438,540.898,538.622,0.0
52484.0,STARLINK-3887,PAYLOAD,2023-10-08 17:03:16,15.08840445,0.0001752,53.2178,62.965,86.5172,273.602,9.4783e-05,1.221e-05,0.0,0 STARLINK-3887,1 52484U 22049AK  23281.71061216  .00001221  00000-0  94783-4 0  9991,2 52484  53.2178  62.9650 0001752  86.5172 273.6020 15.08840445 79110,6917.879,95.438,540.956,538.532,0.0
52484.0,STARLINK-3887,PAYLOAD,2023-10-09 13:43:17,15.08844565,0.0001795,53.2182,59.0988,91.6337,268.4861,0.00011515,1.545e-05,0.0,0 STARLINK-3887,1 52484U 22049AK  23282.57173122  .00001545  00000-0  11515-3 0  9996,2 52484  53.2182  59.0988 0001795  91.6337 268.4861 15.08844565 79081,6917.866,95.437,540.973,538.49,0.0
52484.0,STARLINK-3887,PAYLOAD,2023-10-09 16:54:03,15.0885103,0.0001542,53.2172,58.503,93.9367,266.1801,0.00025194,3.725e-05,0.0,0 STARLINK-3887,1 52484U 22049AK  23282.70420738  .00003725  00000-0  25194-3 0  9999,2 52484  53.2172  58.5030 0001542  93.9367 266.1801 15.08851030 79107,6917.847,95.437,540.778,538.645,0.0
